{
  "type": "FeatureCollection",
  "features": [
    {
      "type": "Feature",
      "properties": {
        "norad_id": 37436,
        "name": "FENGYUN 1C DEB",
        "group": "fengyun-1c-debris",
        "lat": 44.96130484431095,
        "lon": 33.295641494909056,
        "alt_km": 874.5703058824156,
        "timestamp": "2025-12-13T20:38:51.294334+00:00",
        "meta_object_name": "FENGYUN 1C DEB",
        "meta_object_id": "1999-025EHE",
        "meta_epoch": "2025-12-08T08:57:07.720992",
        "meta_mean_motion": 14.06336267,
        "meta_eccentricity": 0.00596162,
        "meta_inclination": 98.9375,
        "meta_ra_of_asc_node": 36.9205,
        "meta_arg_of_pericenter": 160.2305,
        "meta_mean_anomaly": 200.1192,
        "meta_ephemeris_type": 0,
        "meta_classification_type": "U",
        "meta_norad_cat_id": 37436,
        "meta_element_set_no": 999,
        "meta_rev_at_epoch": 63937,
        "meta_bstar": 0.0011550832,
        "meta_mean_motion_dot": 1.893e-05,
        "meta_mean_motion_ddot": 0,
        "tle_line1": "1 37436U 99025EHE 25342.37300603  .00001893  00000+0  11551-2 0  9991",
        "tle_line2": "2 37436  98.9375  36.9205 0059616 160.2305 200.1192 14.06336267639376"
      },
      "geometry": {
        "type": "Point",
        "coordinates": [
          33.295641494909056,
          44.96130484431095
        ]
      }
    },
    {
      "type": "Feature",
      "properties": {
        "norad_id": 37437,
        "name": "FENGYUN 1C DEB",
        "group": "fengyun-1c-debris",
        "lat": 13.861404089241702,
        "lon": -22.431931739659586,
        "alt_km": 759.8469311556582,
        "timestamp": "2025-12-13T20:38:51.294345+00:00",
        "meta_object_name": "FENGYUN 1C DEB",
        "meta_object_id": "1999-025EHF",
        "meta_epoch": "2025-11-30T18:36:25.322976",
        "meta_mean_motion": 14.18810149,
        "meta_eccentricity": 0.0113368,
        "meta_inclination": 98.5859,
        "meta_ra_of_asc_node": 327.0314,
        "meta_arg_of_pericenter": 82.7284,
        "meta_mean_anomaly": 94.5607,
        "meta_ephemeris_type": 0,
        "meta_classification_type": "U",
        "meta_norad_cat_id": 37437,
        "meta_element_set_no": 999,
        "meta_rev_at_epoch": 63821,
        "meta_bstar": 0.0004989187,
        "meta_mean_motion_dot": 1.064e-05,
        "meta_mean_motion_ddot": 0,
        "tle_line1": "1 37437U 99025EHF 25334.77529309  .00001064  00000+0  49892-3 0  9993",
        "tle_line2": "2 37437  98.5859 327.0314 0113368  82.7284  94.5607 14.18810149638211"
      },
      "geometry": {
        "type": "Point",
        "coordinates": [
          -22.431931739659586,
          13.861404089241702
        ]
      }
    },
    {
      "type": "Feature",
      "properties": {
        "norad_id": 37438,
        "name": "FENGYUN 1C DEB",
        "group": "fengyun-1c-debris",
        "lat": 20.24755533537195,
        "lon": 23.57064574035825,
        "alt_km": 860.2735813426561,
        "timestamp": "2025-12-13T20:38:51.294354+00:00",
        "meta_object_name": "FENGYUN 1C DEB",
        "meta_object_id": "1999-025EHG",
        "meta_epoch": "2025-12-09T07:58:39.452448",
        "meta_mean_motion": 14.1550467,
        "meta_eccentricity": 0.00287361,
        "meta_inclination": 98.7401,
        "meta_ra_of_asc_node": 22.3854,
        "meta_arg_of_pericenter": 230.9593,
        "meta_mean_anomaly": 128.9023,
        "meta_ephemeris_type": 0,
        "meta_classification_type": "U",
        "meta_norad_cat_id": 37438,
        "meta_element_set_no": 999,
        "meta_rev_at_epoch": 60087,
        "meta_bstar": 0.001051415,
        "meta_mean_motion_dot": 2.019e-05,
        "meta_mean_motion_ddot": 0,
        "tle_line1": "1 37438U 99025EHG 25343.33240107  .00002019  00000+0  10514-2 0  9991",
        "tle_line2": "2 37438  98.7401  22.3854 0028736 230.9593 128.9023 14.15504670600876"
      },
      "geometry": {
        "type": "Point",
        "coordinates": [
          23.57064574035825,
          20.24755533537195
        ]
      }
    },
    {
      "type": "Feature",
      "properties": {
        "norad_id": 37441,
        "name": "FENGYUN 1C DEB",
        "group": "fengyun-1c-debris",
        "lat": -71.73240414609216,
        "lon": -136.22268780011945,
        "alt_km": 1428.9953817259084,
        "timestamp": "2025-12-13T20:38:51.294364+00:00",
        "meta_object_name": "FENGYUN 1C DEB",
        "meta_object_id": "1999-025EHK",
        "meta_epoch": "2025-12-10T19:56:27.247488",
        "meta_mean_motion": 13.14218168,
        "meta_eccentricity": 0.05083236,
        "meta_inclination": 99.1462,
        "meta_ra_of_asc_node": 191.9401,
        "meta_arg_of_pericenter": 59.3859,
        "meta_mean_anomaly": 305.6377,
        "meta_ephemeris_type": 0,
        "meta_classification_type": "U",
        "meta_norad_cat_id": 37441,
        "meta_element_set_no": 999,
        "meta_rev_at_epoch": 82147,
        "meta_bstar": 0.0021984754,
        "meta_mean_motion_dot": 1.529e-05,
        "meta_mean_motion_ddot": 0,
        "tle_line1": "1 37441U 99025EHK 25344.83087092  .00001529  00000+0  21985-2 0  9992",
        "tle_line2": "2 37441  99.1462 191.9401 0508323  59.3859 305.6377 13.14218168821475"
      },
      "geometry": {
        "type": "Point",
        "coordinates": [
          -136.22268780011945,
          -71.73240414609216
        ]
      }
    },
    {
      "type": "Feature",
      "properties": {
        "norad_id": 37444,
        "name": "FENGYUN 1C DEB",
        "group": "fengyun-1c-debris",
        "lat": -64.20860271514891,
        "lon": 87.79789375189131,
        "alt_km": 628.1311499991634,
        "timestamp": "2025-12-13T20:38:51.294388+00:00",
        "meta_object_name": "FENGYUN 1C DEB",
        "meta_object_id": "1999-025EHN",
        "meta_epoch": "2025-12-10T11:40:45.779808",
        "meta_mean_motion": 14.48011697,
        "meta_eccentricity": 0.0245044,
        "meta_inclination": 99.0829,
        "meta_ra_of_asc_node": 64.839,
        "meta_arg_of_pericenter": 355.8296,
        "meta_mean_anomaly": 4.0849,
        "meta_ephemeris_type": 0,
        "meta_classification_type": "U",
        "meta_norad_cat_id": 37444,
        "meta_element_set_no": 999,
        "meta_rev_at_epoch": 65118,
        "meta_bstar": 0.00083100309,
        "meta_mean_motion_dot": 4.451e-05,
        "meta_mean_motion_ddot": 0,
        "tle_line1": "1 37444U 99025EHN 25344.48664097  .00004451  00000+0  83100-3 0  9997",
        "tle_line2": "2 37444  99.0829  64.8390 0245044 355.8296   4.0849 14.48011697651185"
      },
      "geometry": {
        "type": "Point",
        "coordinates": [
          87.79789375189131,
          -64.20860271514891
        ]
      }
    },
    {
      "type": "Feature",
      "properties": {
        "norad_id": 37448,
        "name": "FENGYUN 1C DEB",
        "group": "fengyun-1c-debris",
        "lat": -73.96170580638142,
        "lon": 87.31116626252286,
        "alt_km": 1093.546247998518,
        "timestamp": "2025-12-13T20:38:51.294400+00:00",
        "meta_object_name": "FENGYUN 1C DEB",
        "meta_object_id": "1999-025EHS",
        "meta_epoch": "2025-12-12T22:30:50.536224",
        "meta_mean_motion": 13.87086269,
        "meta_eccentricity": 0.0305972,
        "meta_inclination": 99.321,
        "meta_ra_of_asc_node": 51.5487,
        "meta_arg_of_pericenter": 58.0944,
        "meta_mean_anomaly": 304.9591,
        "meta_ephemeris_type": 0,
        "meta_classification_type": "U",
        "meta_norad_cat_id": 37448,
        "meta_element_set_no": 999,
        "meta_rev_at_epoch": 62378,
        "meta_bstar": 0.0018582025,
        "meta_mean_motion_dot": 3.112e-05,
        "meta_mean_motion_ddot": 0,
        "tle_line1": "1 37448U 99025EHS 25346.93808491  .00003112  00000+0  18582-2 0  9995",
        "tle_line2": "2 37448  99.3210  51.5487 0305972  58.0944 304.9591 13.87086269623785"
      },
      "geometry": {
        "type": "Point",
        "coordinates": [
          87.31116626252286,
          -73.96170580638142
        ]
      }
    },
    {
      "type": "Feature",
      "properties": {
        "norad_id": 37460,
        "name": "FENGYUN 1C DEB",
        "group": "fengyun-1c-debris",
        "lat": 80.63363738658084,
        "lon": 100.41679335683608,
        "alt_km": 762.4034888594015,
        "timestamp": "2025-12-13T20:38:51.294411+00:00",
        "meta_object_name": "FENGYUN 1C DEB",
        "meta_object_id": "1999-025EJE",
        "meta_epoch": "2025-12-08T10:53:05.307360",
        "meta_mean_motion": 14.47840336,
        "meta_eccentricity": 0.00565903,
        "meta_inclination": 98.3779,
        "meta_ra_of_asc_node": 158.3686,
        "meta_arg_of_pericenter": 303.3518,
        "meta_mean_anomaly": 56.2265,
        "meta_ephemeris_type": 0,
        "meta_classification_type": "U",
        "meta_norad_cat_id": 37460,
        "meta_element_set_no": 999,
        "meta_rev_at_epoch": 82427,
        "meta_bstar": 0.0027403859,
        "meta_mean_motion_dot": 0.00010316,
        "meta_mean_motion_ddot": 0,
        "tle_line1": "1 37460U 99025EJE 25342.45353365  .00010316  00000+0  27404-2 0  9994",
        "tle_line2": "2 37460  98.3779 158.3686 0056590 303.3518  56.2265 14.47840336824279"
      },
      "geometry": {
        "type": "Point",
        "coordinates": [
          100.41679335683608,
          80.63363738658084
        ]
      }
    }
  ]
}